{
  "type": "FeatureCollection",
  "features": [
    {
      "type": "Feature",
      "properties": {
        "norad_id": 47059,
        "name": "COSMOS 2251 DEB",
        "group": "cosmos-2251-debris",
        "lat": 8.422904163846852,
        "lon": 66.00258562573507,
        "alt_km": 536.4626364682272,
        "timestamp": "2025-12-06T11:28:11.460876+00:00",
        "meta_object_name": "COSMOS 2251 DEB",
        "meta_object_id": "1993-036BXP",
        "meta_epoch": "2025-11-30T02:15:08.813664",
        "meta_mean_motion": 15.10829083,
        "meta_eccentricity": 0.00120344,
        "meta_inclination": 73.9823,
        "meta_ra_of_asc_node": 261.6801,
        "meta_arg_of_pericenter": 69.4658,
        "meta_mean_anomaly": 304.3449,
        "meta_ephemeris_type": 0,
        "meta_classification_type": "U",
        "meta_norad_cat_id": 47059,
        "meta_element_set_no": 999,
        "meta_rev_at_epoch": 8114,
        "meta_bstar": 0.003761596,
        "meta_mean_motion_dot": 0.00063166,
        "meta_mean_motion_ddot": 0,
        "tle_line1": "1 47059U 93036BXP 25334.09385201  .00063166  00000+0  37616-2 0  9997",
        "tle_line2": "2 47059  73.9823 261.6801 0012034  69.4658 304.3449 15.10829083 81149"
      },
      "geometry": {
        "type": "Point",
        "coordinates": [
          66.00258562573507,
          8.422904163846852
        ]
      }
    },
    {
      "type": "Feature",
      "properties": {
        "norad_id": 47062,
        "name": "COSMOS 2251 DEB",
        "group": "cosmos-2251-debris",
        "lat": 47.306769506209854,
        "lon": -109.51263792931493,
        "alt_km": 961.4064950307356,
        "timestamp": "2025-12-06T11:28:11.460886+00:00",
        "meta_object_name": "COSMOS 2251 DEB",
        "meta_object_id": "1993-036BXS",
        "meta_epoch": "2025-12-04T01:57:13.752288",
        "meta_mean_motion": 13.7189048,
        "meta_eccentricity": 0.03234575,
        "meta_inclination": 74.0841,
        "meta_ra_of_asc_node": 92.4536,
        "meta_arg_of_pericenter": 219.9964,
        "meta_mean_anomaly": 322.3152,
        "meta_ephemeris_type": 0,
        "meta_classification_type": "U",
        "meta_norad_cat_id": 47062,
        "meta_element_set_no": 999,
        "meta_rev_at_epoch": 55483,
        "meta_bstar": 0.0040443248,
        "meta_mean_motion_dot": 5.303e-05,
        "meta_mean_motion_ddot": 0,
        "tle_line1": "1 47062U 93036BXS 25338.08140917  .00005303  00000+0  40443-2 0  9998",
        "tle_line2": "2 47062  74.0841  92.4536 0323457 219.9964 322.3152 13.71890480554832"
      },
      "geometry": {
        "type": "Point",
        "coordinates": [
          -109.51263792931493,
          47.306769506209854
        ]
      }
    },
    {
      "type": "Feature",
      "properties": {
        "norad_id": 47068,
        "name": "COSMOS 2251 DEB",
        "group": "cosmos-2251-debris",
        "lat": -41.723451117192035,
        "lon": 50.09542525264416,
        "alt_km": 719.2479019360981,
        "timestamp": "2025-12-06T11:28:11.460896+00:00",
        "meta_object_name": "COSMOS 2251 DEB",
        "meta_object_id": "1993-036BXY",
        "meta_epoch": "2025-12-05T22:52:31.528416",
        "meta_mean_motion": 14.53079346,
        "meta_eccentricity": 0.00184568,
        "meta_inclination": 74.0241,
        "meta_ra_of_asc_node": 216.2856,
        "meta_arg_of_pericenter": 303.5943,
        "meta_mean_anomaly": 56.3457,
        "meta_ephemeris_type": 0,
        "meta_classification_type": "U",
        "meta_norad_cat_id": 47068,
        "meta_element_set_no": 999,
        "meta_rev_at_epoch": 61658,
        "meta_bstar": 0.0015277315,
        "meta_mean_motion_dot": 6.306e-05,
        "meta_mean_motion_ddot": 0,
        "tle_line1": "1 47068U 93036BXY 25339.95314269  .00006306  00000+0  15277-2 0  9995",
        "tle_line2": "2 47068  74.0241 216.2856 0018456 303.5943  56.3457 14.53079346616584"
      },
      "geometry": {
        "type": "Point",
        "coordinates": [
          50.09542525264416,
          -41.723451117192035
        ]
      }
    },
    {
      "type": "Feature",
      "properties": {
        "norad_id": 47073,
        "name": "COSMOS 2251 DEB",
        "group": "cosmos-2251-debris",
        "lat": 37.36401946188014,
        "lon": -134.67427938434312,
        "alt_km": 972.7505326562641,
        "timestamp": "2025-12-06T11:28:11.460906+00:00",
        "meta_object_name": "COSMOS 2251 DEB",
        "meta_object_id": "1993-036BYD",
        "meta_epoch": "2025-11-28T23:48:38.837952",
        "meta_mean_motion": 14.04684181,
        "meta_eccentricity": 0.01626495,
        "meta_inclination": 74.0833,
        "meta_ra_of_asc_node": 225.7586,
        "meta_arg_of_pericenter": 267.1836,
        "meta_mean_anomaly": 91.0675,
        "meta_ephemeris_type": 0,
        "meta_classification_type": "U",
        "meta_norad_cat_id": 47073,
        "meta_element_set_no": 999,
        "meta_rev_at_epoch": 60168,
        "meta_bstar": 0.0003803633,
        "meta_mean_motion_dot": 6.6e-06,
        "meta_mean_motion_ddot": 0,
        "tle_line1": "1 47073U 93036BYD 25332.99211618  .00000660  00000+0  38036-3 0  9998",
        "tle_line2": "2 47073  74.0833 225.7586 0162649 267.1836  91.0675 14.04684181601680"
      },
      "geometry": {
        "type": "Point",
        "coordinates": [
          -134.67427938434312,
          37.36401946188014
        ]
      }
    },
    {
      "type": "Feature",
      "properties": {
        "norad_id": 47074,
        "name": "COSMOS 2251 DEB",
        "group": "cosmos-2251-debris",
        "lat": -33.28135324242811,
        "lon": 150.95249917819652,
        "alt_km": 850.6416982743858,
        "timestamp": "2025-12-06T11:28:11.460916+00:00",
        "meta_object_name": "COSMOS 2251 DEB",
        "meta_object_id": "1993-036BYE",
        "meta_epoch": "2025-12-03T18:02:52.457856",
        "meta_mean_motion": 14.35498744,
        "meta_eccentricity": 0.01434773,
        "meta_inclination": 74.091,
        "meta_ra_of_asc_node": 325.1457,
        "meta_arg_of_pericenter": 355.2449,
        "meta_mean_anomaly": 179.085,
        "meta_ephemeris_type": 0,
        "meta_classification_type": "U",
        "meta_norad_cat_id": 47074,
        "meta_element_set_no": 999,
        "meta_rev_at_epoch": 2553,
        "meta_bstar": 0.0029812178,
        "meta_mean_motion_dot": 9.625e-05,
        "meta_mean_motion_ddot": 0,
        "tle_line1": "1 47074U 93036BYE 25337.75199604  .00009625  00000+0  29812-2 0  9999",
        "tle_line2": "2 47074  74.0910 325.1457 0143477 355.2449 179.0850 14.35498744 25534"
      },
      "geometry": {
        "type": "Point",
        "coordinates": [
          150.95249917819652,
          -33.28135324242811
        ]
      }
    },
    {
      "type": "Feature",
      "properties": {
        "norad_id": 47116,
        "name": "COSMOS 2251 DEB",
        "group": "cosmos-2251-debris",
        "lat": 72.69498153713853,
        "lon": 6.5719386196962475,
        "alt_km": 572.5724075478538,
        "timestamp": "2025-12-06T11:28:11.460927+00:00",
        "meta_object_name": "COSMOS 2251 DEB",
        "meta_object_id": "1993-036BYJ",
        "meta_epoch": "2025-11-28T02:40:22.126944",
        "meta_mean_motion": 14.97052334,
        "meta_eccentricity": 0.00224176,
        "meta_inclination": 74.0247,
        "meta_ra_of_asc_node": 270.3586,
        "meta_arg_of_pericenter": 5.4926,
        "meta_mean_anomaly": 12.2387,
        "meta_ephemeris_type": 0,
        "meta_classification_type": "U",
        "meta_norad_cat_id": 47116,
        "meta_element_set_no": 999,
        "meta_rev_at_epoch": 59292,
        "meta_bstar": 0.0024991708,
        "meta_mean_motion_dot": 0.00029033,
        "meta_mean_motion_ddot": 0,
        "tle_line1": "1 47116U 93036BYJ 25332.11136721  .00029033  00000+0  24992-2 0  9991",
        "tle_line2": "2 47116  74.0247 270.3586 0022417   5.4926  12.2387 14.97052334592926"
      },
      "geometry": {
        "type": "Point",
        "coordinates": [
          6.5719386196962475,
          72.69498153713853
        ]
      }
    },
    {
      "type": "Feature",
      "properties": {
        "norad_id": 53093,
        "name": "COSMOS 2251 DEB",
        "group": "cosmos-2251-debris",
        "lat": 67.24969019975661,
        "lon": 90.01357404914748,
        "alt_km": 742.0405216436047,
        "timestamp": "2025-12-06T11:28:11.460937+00:00",
        "meta_object_name": "COSMOS 2251 DEB",
        "meta_object_id": "1993-036BYP",
        "meta_epoch": "2025-12-05T23:19:23.221056",
        "meta_mean_motion": 14.41816796,
        "meta_eccentricity": 0.00188031,
        "meta_inclination": 74.0365,
        "meta_ra_of_asc_node": 313.9982,
        "meta_arg_of_pericenter": 32.6591,
        "meta_mean_anomaly": 327.5723,
        "meta_ephemeris_type": 0,
        "meta_classification_type": "U",
        "meta_norad_cat_id": 53093,
        "meta_element_set_no": 999,
        "meta_rev_at_epoch": 17628,
        "meta_bstar": 0.0015904151,
        "meta_mean_motion_dot": 5.186e-05,
        "meta_mean_motion_ddot": 0,
        "tle_line1": "1 53093U 93036BYP 25339.97179654  .00005186  00000+0  15904-2 0  9991",
        "tle_line2": "2 53093  74.0365 313.9982 0018803  32.6591 327.5723 14.41816796176288"
      },
      "geometry": {
        "type": "Point",
        "coordinates": [
          90.01357404914748,
          67.24969019975661
        ]
      }
    }
  ]
}